{"type": "FeatureCollection", "features": [ {"type": "Feature", "properties": {"norad_id": 40697, "name": "SENTINEL-2A", "group": "resource", "lat": -48.19873014975763, "lon": 62.809420647343075, "alt_km": 796.3696497873843, "timestamp": "2025-12-06T11:28:10.686426+00:00", "meta": {"OBJECT_NAME": "SENTINEL-2A", "OBJECT_ID": "2015-028A", "EPOCH": "2025-12-05T22:16:17.041728", "MEAN_MOTION": 14.30823199, "ECCENTRICITY": 0.00010365, "INCLINATION": 98.5702, "RA_OF_ASC_NODE": 52.5578, "ARG_OF_PERICENTER": 94.4129, "MEAN_ANOMALY": 265.7172, "EPHEMERIS_TYPE": 0, "CLASSIFICATION_TYPE": "U", "NORAD_CAT_ID": 40697, "ELEMENT_SET_NO": 999, "REV_AT_EPOCH": 54609, "BSTAR": 0.00013713602, "MEAN_MOTION_DOT": 3.16e-06, "MEAN_MOTION_DDOT": 0}, "tle": {"line1": "1 40697U 15028A   25339.92797502  .00000316  00000+0  13714-3 0  9993", "line2": "2 40697  98.5702  52.5578 0001036  94.4129 265.7172 14.30823199546094"}}, "geometry": {"type": "Point", "coordinates": [62.809420647343075, -48.19873014975763]}}, {"type": "Feature", "properties": {"norad_id": 40701, "name": "GAOFEN-8", "group": "resource", "lat": 79.71164143305703, "lon": 26.42759925960672, "alt_km": 440.4736155380233, "timestamp": "2025-12-06T11:28:10.686437+00:00", "meta": {"OBJECT_NAME": "GAOFEN-8", "OBJECT_ID": "2015-030A", "EPOCH": "2025-12-05T22:33:35.558496", "MEAN_MOTION": 15.38205776, "ECCENTRICITY": 0.00113167, "INCLINATION": 97.6907, "RA_OF_ASC_NODE": 157.7509, "ARG_OF_PERICENTER": 161.9516, "MEAN_ANOMALY": 198.2133, "EPHEMERIS_TYPE": 0, "CLASSIFICATION_TYPE": "U", "NORAD_CAT_ID": 40701, "ELEMENT_SET_NO": 999, "REV_AT_EPOCH": 58166, "BSTAR": 0.0006764667, "MEAN_MOTION_DOT": 0.00025476, "MEAN_MOTION_DDOT": 0}, "tle": {"line1": "1 40701U 15030A   25339.93999489  .00025476  00000+0  67647-3 0  9999", "line2": "2 40701  97.6907 157.7509 0011316 161.9516 198.2133 15.38205776581664"}}, "geometry": {"type": "Point", "coordinates": [26.42759925960672, 79.71164143305703]}}, {"type": "Feature", "properties": {"norad_id": 40718, "name": "CARBONITE 1 (CBNT-1)", "group": "resource", "lat": -21.36004942331008, "lon": -21.211379017425454, "alt_km": 616.3905521607676, "timestamp": "2025-12-06T11:28:10.686447+00:00", "meta": {"OBJECT_NAME": "CARBONITE 1 (CBNT-1)", "OBJECT_ID": "2015-032D", "EPOCH": "2025-12-05T23:13:33.178368", "MEAN_MOTION": 14.82693664, "ECCENTRICITY": 0.00139625, "INCLINATION": 97.6401, "RA_OF_ASC_NODE": 161.3104, "ARG_OF_PERICENTER": 204.1421, "MEAN_ANOMALY": 155.9141, "EPHEMERIS_TYPE": 0, "CLASSIFICATION_TYPE": "U", "NORAD_CAT_ID": 40718, "ELEMENT_SET_NO": 999, "REV_AT_EPOCH": 56070, "BSTAR": 0.0005003404, "MEAN_MOTION_DOT": 3.993e-05, "MEAN_MOTION_DDOT": 0}, "tle": {"line1": "1 40718U 15032D   25339.96774512  .00003993  00000+0  50034-3 0  9992", "line2": "2 40718  97.6401 161.3104 0013962 204.1421 155.9141 14.82693664560703"}}, "geometry": {"type": "Point", "coordinates": [-21.211379017425454, -21.36004942331008]}}, {"type": "Feature", "properties": {"norad_id": 40878, "name": "YAOGAN-27", "group": "resource", "lat": 49.548287721327, "lon": -41.68535557585525, "alt_km": 1197.0077237591759, "timestamp": "2025-12-06T11:28:10.686457+00:00", "meta": {"OBJECT_NAME": "YAOGAN-27", "OBJECT_ID": "2015-040A", "EPOCH": "2025-12-05T22:26:30.422112", "MEAN_MOTION": 13.16059908, "ECCENTRICITY": 0.00077004, "INCLINATION": 100.1006, "RA_OF_ASC_NODE": 329.8631, "ARG_OF_PERICENTER": 303.4304, "MEAN_ANOMALY": 56.6073, "EPHEMERIS_TYPE": 0, "CLASSIFICATION_TYPE": "U", "NORAD_CAT_ID": 40878, "ELEMENT_SET_NO": 999, "REV_AT_EPOCH": 49224, "BSTAR": 0.00016925671, "MEAN_MOTION_DOT": 2.2e-07, "MEAN_MOTION_DDOT": 0}, "tle": {"line1": "1 40878U 15040A   25339.93507433  .00000022  00000+0  16926-3 0  9993", "line2": "2 40878 100.1006 329.8631 0007700 303.4304  56.6073 13.16059908492240"}}, "geometry": {"type": "Point", "coordinates": [-41.68535557585525, 49.548287721327]}}, {"type": "Feature", "properties": {"norad_id": 40894, "name": "GAOFEN-9 01", "group": "resource", "lat": 49.74377161038171, "lon": -151.15682080891696, "alt_km": 612.1583104212195, "timestamp": "2025-12-06T11:28:10.686467+00:00", "meta": {"OBJECT_NAME": "GAOFEN-9 01", "OBJECT_ID": "2015-047A", "EPOCH": "2025-12-05T23:32:59.330400", "MEAN_MOTION": 14.82395901, "ECCENTRICITY": 0.00288345, "INCLINATION": 97.6548, "RA_OF_ASC_NODE": 19.2287, "ARG_OF_PERICENTER": 55.6704, "MEAN_ANOMALY": 304.7233, "EPHEMERIS_TYPE": 0, "CLASSIFICATION_TYPE": "U", "NORAD_CAT_ID": 40894, "ELEMENT_SET_NO": 999, "REV_AT_EPOCH": 55156, "BSTAR": 0.00029902312, "MEAN_MOTION_DOT": 2.361e-05, "MEAN_MOTION_DDOT": 0}, "tle": {"line1": "1 40894U 15047A   25339.98124225  .00002361  00000+0  29902-3 0  9993", "line2": "2 40894  97.6548  19.2287 0028834  55.6704 304.7233 14.82395901551563"}}, "geometry": {"type": "Point", "coordinates": [-151.15682080891696, 49.74377161038171]}}, {"type": "Feature", "properties": {"norad_id": 41026, "name": "YAOGAN-28", "group": "resource", "lat": 57.59994411843981, "lon": 106.82593514593233, "alt_km": 487.45385747170167, "timestamp": "2025-12-06T11:28:10.686477+00:00", "meta": {"OBJECT_NAME": "YAOGAN-28", "OBJECT_ID": "2015-064A", "EPOCH": "2025-12-05T22:36:33.422400", "MEAN_MOTION": 15.24177586, "ECCENTRICITY": 0.0012026, "INCLINATION": 97.2806, "RA_OF_ASC_NODE": 117.9276, "ARG_OF_PERICENTER": 148.5727, "MEAN_ANOMALY": 211.6232, "EPHEMERIS_TYPE": 0, "CLASSIFICATION_TYPE": "U", "NORAD_CAT_ID": 41026, "ELEMENT_SET_NO": 999, "REV_AT_EPOCH": 56121, "BSTAR": 0.00061740694, "MEAN_MOTION_DOT": 0.0001501, "MEAN_MOTION_DDOT": 0}, "tle": {"line1": "1 41026U 15064A   25339.94205350  .00015010  00000+0  61741-3 0  9997", "line2": "2 41026  97.2806 117.9276 0012026 148.5727 211.6232 15.24177586561213"}}, "geometry": {"type": "Point", "coordinates": [106.82593514593233, 57.59994411843981]}}, {"type": "Feature", "properties": {"norad_id": 41038, "name": "YAOGAN-29", "group": "resource", "lat": 6.198285390957806, "lon": 2.7517332729501045, "alt_km": 622.0632710188229, "timestamp": "2025-12-06T11:28:10.686488+00:00", "meta": {"OBJECT_NAME": "YAOGAN-29", "OBJECT_ID": "2015-069A", "EPOCH": "2025-12-05T22:29:08.706048", "MEAN_MOTION": 14.82870877, "ECCENTRICITY": 5.613e-05, "INCLINATION": 98.0224, "RA_OF_ASC_NODE": 3.0866, "ARG_OF_PERICENTER": 358.8056, "MEAN_ANOMALY": 1.3156, "EPHEMERIS_TYPE": 0, "CLASSIFICATION_TYPE": "U", "NORAD_CAT_ID": 41038, "ELEMENT_SET_NO": 999, "REV_AT_EPOCH": 54198, "BSTAR": 0.00011740289, "MEAN_MOTION_DOT": 8.97e-06, "MEAN_MOTION_DDOT": 0}, "tle": {"line1": "1 41038U 15069A   25339.93690632  .00000897  00000+0  11740-3 0  9996", "line2": "2 41038  98.0224   3.0866 0000561 358.8056   1.3156 14.82870877541988"}}, "geometry": {"type": "Point", "coordinates": [2.7517332729501045, 6.198285390957806]}}, {"type": "Feature", "properties": {"norad_id": 41167, "name": "KENT RIDGE 1", "group": "resource", "lat": -3.1909785642294017, "lon": -114.41970034136251, "alt_km": 495.3209014186441, "timestamp": "2025-12-06T11:28:10.686498+00:00", "meta": {"OBJECT_NAME": "KENT RIDGE 1", "OBJECT_ID": "2015-077B", "EPOCH": "2025-12-05T10:21:04.162752", "MEAN_MOTION": 15.2154754, "ECCENTRICITY": 0.00086096, "INCLINATION": 14.9801, "RA_OF_ASC_NODE": 265.3698, "ARG_OF_PERICENTER": 27.2296, "MEAN_ANOMALY": 332.8476, "EPHEMERIS_TYPE": 0, "CLASSIFICATION_TYPE": "U", "NORAD_CAT_ID": 41167, "ELEMENT_SET_NO": 999, "REV_AT_EPOCH": 55152, "BSTAR": 0.00031192273, "MEAN_MOTION_DOT": 8.012e-05, "MEAN_MOTION_DDOT": 0}, "tle": {"line1": "1 41167U 15077B   25339.43129818  .00008012  00000+0  31192-3 0  9996", "line2": "2 41167  14.9801 265.3698 0008609  27.2296 332.8476 15.21547540551529"}}, "geometry": {"type": "Point", "coordinates": [-114.41970034136251, -3.1909785642294017]}}, {"type": "Feature", "properties": {"norad_id": 41194, "name": "GAOFEN-4", "group": "resource", "lat": -0.14254137069962766, "lon": -6.737384491282366, "alt_km": 35800.881441630634, "timestamp": "2025-12-06T11:28:10.686512+00:00", "meta": {"OBJECT_NAME": "GAOFEN-4", "OBJECT_ID": "2015-083A", "EPOCH": "2025-12-05T21:51:38.700576", "MEAN_MOTION": 1.00272405, "ECCENTRICITY": 0.00036442, "INCLINATION": 0.1521, "RA_OF_ASC_NODE": 80.9122, "ARG_OF_PERICENTER": 105.772, "MEAN_ANOMALY": 321.8871, "EPHEMERIS_TYPE": 0, "CLASSIFICATION_TYPE": "U", "NORAD_CAT_ID": 41194, "ELEMENT_SET_NO": 999, "REV_AT_EPOCH": 3659, "BSTAR": 0, "MEAN_MOTION_DOT": -3.26e-06, "MEAN_MOTION_DDOT": 0}, "tle": {"line1": "1 41194U 15083A   25339.91086459 -.00000326  00000+0  00000+0 0  9990", "line2": "2 41194   0.1521  80.9122 0003644 105.7720 321.8871  1.00272405 36595"}}, "geometry": {"type": "Point", "coordinates": [-6.737384491282366, -0.14254137069962766]}}, {"type": "Feature", "properties": {"norad_id": 41240, "name": "JASON-3", "group": "resource", "lat": 65.93821189062781, "lon": -104.24443402730137, "alt_km": 1309.1415122866701, "timestamp": "2025-12-06T11:28:10.686523+00:00", "meta": {"OBJECT_NAME": "JASON-3", "OBJECT_ID": "2016-002A", "EPOCH": "2025-12-05T21:57:58.331808", "MEAN_MOTION": 12.87626238, "ECCENTRICITY": 0.00071329, "INCLINATION": 66.0391, "RA_OF_ASC_NODE": 172.1723, "ARG_OF_PERICENTER": 270.3827, "MEAN_ANOMALY": 89.6374, "EPHEMERIS_TYPE": 0, "CLASSIFICATION_TYPE": "U", "NORAD_CAT_ID": 41240, "ELEMENT_SET_NO": 999, "REV_AT_EPOCH": 46236, "BSTAR": 0.0001830301, "MEAN_MOTION_DOT": -1.6e-07, "MEAN_MOTION_DDOT": 0}, "tle": {"line1": "1 41240U 16002A   25339.91525847 -.00000016  00000+0  18303-3 0  9998", "line2": "2 41240  66.0391 172.1723 0007132 270.3827  89.6374 12.87626238462366"}}, "geometry": {"type": "Point", "coordinates": [-104.24443402730137, 65.93821189062781]}}]}